NORAD_CAT_ID,OBJECT_NAME,OBJECT_TYPE,EPOCH,MEAN_MOTION,ECCENTRICITY,INCLINATION,RA_OF_ASC_NODE,ARG_OF_PERICENTER,MEAN_ANOMALY,BSTAR,MEAN_MOTION_DOT,MEAN_MOTION_DDOT,TLE_LINE0,TLE_LINE1,TLE_LINE2,SEMIMAJOR_AXIS,PERIOD,APOGEE,PERIGEE,DECAYED
56474.0,STARLINK-5524,PAYLOAD,2024-05-13 21:14:20,14.98333572,0.0003136,70.0012,0.8413,269.783,90.2969,0.001422,0.00016917,0.0,0 STARLINK-5524,1 56474U 23064AC  24134.88496400  .00016917  00000-0  14220-2 0  9999,2 56474  70.0012   0.8413 0003136 269.7830  90.2969 14.98333572 56159,6950.182,96.107,574.226,569.867,0.0
56474.0,STARLINK-5524,PAYLOAD,2024-05-14 08:27:16,14.98351494,0.0003248,70.0014,359.6628,267.8622,92.2165,0.00071909,8.502e-05,0.0,0 STARLINK-5524,1 56474U 23064AC  24135.35227423  .00008502  00000-0  71909-3 0  9998,2 56474  70.0014 359.6628 0003248 267.8622  92.2165 14.98351494 56227,6950.126,96.106,574.249,569.734,0.0
56474.0,STARLINK-5524,PAYLOAD,2024-05-14 21:16:20,14.98362946,0.0003279,70.0016,358.3161,267.6785,92.3998,0.00089885,0.00010658,0.0,0 STARLINK-5524,1 56474U 23064AC  24135.88634470  .00010658  00000-0  89885-3 0  9997,2 56474  70.0016 358.3161 0003279 267.6785  92.3998 14.98362946 56666,6950.091,96.105,574.235,569.677,0.0
56474.0,STARLINK-5524,PAYLOAD,2024-05-14 22:52:28,14.98364607,0.0003303,70.0016,358.1477,267.4704,92.6077,0.00092087,0.00010922,0.0,0 STARLINK-5524,1 56474U 23064AC  24135.95310309  .00010922  00000-0  92087-3 0  9999,2 56474  70.0016 358.1477 0003303 267.4704  92.6077 14.98364607 56310,6950.086,96.105,574.246,569.655,0.0
56474.0,STARLINK-5524,PAYLOAD,2024-05-15 14:53:47,14.98366672,0.0003315,70.0018,356.4644,267.4755,92.6025,0.00053625,6.317e-05,0.0,0 STARLINK-5524,1 56474U 23064AC  24136.62068925  .00006317  00000-0  53625-3 0  9996,2 56474  70.0018 356.4644 0003315 267.4755  92.6025 14.98366672 56416,6950.079,96.105,574.248,569.641,0.0
56474.0,STARLINK-5524,PAYLOAD,2024-05-15 21:18:19,14.9837225,0.0003308,70.0016,355.7916,268.2562,91.8218,0.00061607,7.274e-05,0.0,0 STARLINK-5524,1 56474U 23064AC  24136.88772183  .00007274  00000-0  61607-3 0  9994,2 56474  70.0016 355.7916 0003308 268.2562  91.8218 14.98372250 56813,6950.062,96.104,574.226,569.628,0.0
56474.0,STARLINK-5524,PAYLOAD,2024-05-16 13:19:39,14.98356017,0.0003315,70.0019,354.1081,265.6553,94.4228,5.351e-05,5.46e-06,0.0,0 STARLINK-5524,1 56474U 23064AC  24137.55531446  .00000546  00000-0  53510-4 0  9994,2 56474  70.0019 354.1081 0003315 265.6553  94.4228 14.98356017 56915,6950.112,96.105,574.281,569.673,0.0
56474.0,STARLINK-5524,PAYLOAD,2024-05-16 21:20:19,14.98336916,0.0003913,70.0021,353.2664,274.068,86.0031,-0.0003642,-4.437e-05,0.0,0 STARLINK-5524,1 56474U 23064AC  24137.88911696 -.00004437  00000-0 -36420-3 0  9994,2 56474  70.0021 353.2664 0003913 274.0680  86.0031 14.98336916 56605,6950.172,96.107,574.756,569.317,0.0
56474.0,STARLINK-5524,PAYLOAD,2024-05-17 00:32:35,14.98346182,0.0003341,70.0019,352.9299,273.0384,87.0392,-2.2242e-05,-3.59e-06,0.0,0 STARLINK-5524,1 56474U 23064AC  24138.02263574 -.00000359  00000-0 -22242-4 0  9993,2 56474  70.0019 352.9299 0003341 273.0384  87.0392 14.98346182 56985,6950.143,96.106,574.33,569.686,0.0
56474.0,STARLINK-5524,PAYLOAD,2024-05-17 21:22:21,14.98319937,0.0003014,70.0021,350.7424,271.7593,88.3221,1.3208e-05,6.5e-07,0.0,0 STARLINK-5524,1 56474U 23064AC  24138.89052564  .00000065  00000-0  13208-4 0  9997,2 56474  70.0021 350.7424 0003014 271.7593  88.3221 14.98319937 57117,6950.224,96.108,574.184,569.994,0.0
56474.0,STARLINK-5524,PAYLOAD,2024-05-18 06:59:08,14.98349857,0.0003025,70.0024,349.7322,275.353,84.7283,-0.00058075,-7.019e-05,0.0,0 STARLINK-5524,1 56474U 23064AC  24139.29107236 -.00007019  00000-0 -58075-3 0  9997,2 56474  70.0024 349.7322 0003025 275.3530  84.7283 14.98349857 57176,6950.131,96.106,574.099,569.894,0.0
56474.0,STARLINK-5524,PAYLOAD,2024-05-18 14:59:49,14.98334523,0.0003415,69.9991,348.8899,270.747,89.3298,0.00024659,2.851e-05,0.0,0 STARLINK-5524,1 56474U 23064AC  24139.62487699  .00002851  00000-0  24659-3 0  9996,2 56474  69.9991 348.8899 0003415 270.7470  89.3298 14.98334523 56866,6950.179,96.107,574.417,569.67,0.0
56474.0,STARLINK-5524,PAYLOAD,2024-05-18 21:24:21,14.9835035,0.0002942,70.0017,348.2167,273.4458,86.6365,0.00059361,7.001e-05,0.0,0 STARLINK-5524,1 56474U 23064AC  24139.89191510  .00007001  00000-0  59361-3 0  9999,2 56474  70.0017 348.2167 0002942 273.4458  86.6365 14.98350350 56906,6950.13,96.106,574.04,569.95,0.0
56474.0,STARLINK-5524,PAYLOAD,2024-05-19 19:50:14,14.98331546,0.0003432,70.0011,345.8603,271.7309,88.3457,3.1907e-05,2.88e-06,0.0,0 STARLINK-5524,1 56474U 23064AC  24140.82656207  .00000288  00000-0  31907-4 0  9990,2 56474  70.0011 345.8603 0003432 271.7309  88.3457 14.98331546 57402,6950.188,96.107,574.438,569.668,0.0
56474.0,STARLINK-5524,PAYLOAD,2024-05-20 15:03:51,14.98335352,0.0003695,70.0007,343.8407,278.3336,81.7404,0.00020204,2.319e-05,0.0,0 STARLINK-5524,1 56474U 23064AC  24141.62768295  .00002319  00000-0  20204-3 0  9994,2 56474  70.0007 343.8407 0003695 278.3336  81.7404 14.98335352 57162,6950.176,96.107,574.609,569.473,0.0
56474.0,STARLINK-5524,PAYLOAD,2024-05-20 19:52:16,14.98339841,0.0003679,70.0009,343.3354,279.1958,80.8785,0.00093102,0.00011037,0.0,0 STARLINK-5524,1 56474U 23064AC  24141.82796393  .00011037  00000-0  93102-3 0  9990,2 56474  70.0009 343.3354 0003679 279.1958  80.8785 14.98339841 57553,6950.162,96.106,574.584,569.47,0.0
56474.0,STARLINK-5524,PAYLOAD,2024-05-21 13:29:44,14.98333706,0.0003042,70.0022,341.4859,267.9115,92.1696,0.0001689,1.923e-05,0.0,0 STARLINK-5524,1 56474U 23064AC  24142.56232319  .00001923  00000-0  16890-3 0  9997,2 56474  70.0022 341.4859 0003042 267.9115  92.1696 14.98333706 57664,6950.181,96.107,574.161,569.932,0.0
56474.0,STARLINK-5524,PAYLOAD,2024-05-21 21:30:25,14.98333366,0.0003038,70.0018,340.6441,267.8789,92.2022,0.00027532,3.194e-05,0.0,0 STARLINK-5524,1 56474U 23064AC  24142.89612392  .00003194  00000-0  27532-3 0  9993,2 56474  70.0018 340.6441 0003038 267.8789  92.2022 14.98333366 57350,6950.182,96.107,574.159,569.936,0.0
56474.0,STARLINK-5524,PAYLOAD,2024-05-21 23:06:33,14.98333983,0.0003055,70.0018,340.4756,268.7202,91.3607,0.00027398,3.178e-05,0.0,0 STARLINK-5524,1 56474U 23064AC  24142.96288375  .00003178  00000-0  27398-3 0  9993,2 56474  70.0018 340.4756 0003055 268.7202  91.3607 14.98333983 57361,6950.181,96.107,574.169,569.922,0.0
56474.0,STARLINK-5524,PAYLOAD,2024-05-22 19:56:17,14.98336451,0.000275,70.0025,338.2876,262.3325,97.7522,0.00022138,2.55e-05,0.0,0 STARLINK-5524,1 56474U 23064AC  24143.83076105  .00002550  00000-0  22138-3 0  9996,2 56474  70.0025 338.2876 0002750 262.3325  97.7522 14.98336451 57857,6950.173,96.107,573.949,570.127,0.0
56474.0,STARLINK-5524,PAYLOAD,2024-05-22 21:32:25,14.98336814,0.0002758,70.0023,338.1193,262.6955,97.389,0.00016508,1.878e-05,0.0,0 STARLINK-5524,1 56474U 23064AC  24143.89752042  .00001878  00000-0  16508-3 0  9999,2 56474  70.0023 338.1193 0002758 262.6955  97.3890 14.98336814 57505,6950.172,96.107,573.954,570.12,0.0
56474.0,STARLINK-5524,PAYLOAD,2024-05-23 13:33:46,14.983314,0.0002912,70.0015,336.4348,267.6977,92.3849,0.00012624,1.414e-05,0.0,0 STARLINK-5524,1 56474U 23064AC  24144.56512222  .00001414  00000-0  12624-3 0  9999,2 56474  70.0015 336.4348 0002912 267.6977  92.3849 14.98331400 57965,6950.189,96.107,574.077,570.03,0.0
56474.0,STARLINK-5524,PAYLOAD,2024-05-23 19:58:18,14.98331098,0.000303,70.0013,335.7614,263.7408,96.3406,8.8061e-05,9.58e-06,0.0,0 STARLINK-5524,1 56474U 23064AC  24144.83216171  .00000958  00000-0  88061-4 0  9994,2 56474  70.0013 335.7614 0003030 263.7408  96.3406 14.98331098 57640,6950.189,96.107,574.16,569.949,0.0
56474.0,STARLINK-5524,PAYLOAD,2024-05-24 13:35:47,14.98331319,0.0002977,70.0004,333.9086,264.0489,96.033,0.00010625,1.175e-05,0.0,0 STARLINK-5524,1 56474U 23064AC  24145.56652230  .00001175  00000-0  10625-3 0  9997,2 56474  70.0004 333.9086 0002977 264.0489  96.0330 14.98331319 57756,6950.189,96.107,574.123,569.985,0.0
56474.0,STARLINK-5524,PAYLOAD,2024-05-24 21:36:27,14.98334929,0.0003122,69.9999,333.067,259.732,100.3487,6.386e-05,6.69e-06,0.0,0 STARLINK-5524,1 56474U 23064AC  24145.90031943  .00000669  00000-0  63860-4 0  9994,2 56474  69.9999 333.0670 0003122 259.7320 100.3487 14.98334929 58162,6950.178,96.107,574.212,569.873,0.0
56474.0,STARLINK-5524,PAYLOAD,2024-05-25 13:37:47,14.98350775,0.0003384,69.9995,331.3842,262.9214,97.156,0.00032164,3.749e-05,0.0,0 STARLINK-5524,1 56474U 23064AC  24146.56790568  .00003749  00000-0  32164-3 0  9996,2 56474  69.9995 331.3842 0003384 262.9214  97.1560 14.98350775 58261,6950.129,96.106,574.346,569.642,0.0
56474.0,STARLINK-5524,PAYLOAD,2024-05-25 20:02:20,14.98330582,0.0003299,69.9994,330.7099,265.8617,94.2165,8.7103e-05,9.46e-06,0.0,0 STARLINK-5524,1 56474U 23064AC  24146.83496264  .00000946  00000-0  87103-4 0  9992,2 56474  69.9994 330.7099 0003299 265.8617  94.2165 14.98330582 58309,6950.191,96.107,574.349,569.763,0.0
56474.0,STARLINK-5524,PAYLOAD,2024-05-26 15:15:57,14.98330905,0.0003684,69.9994,328.6914,273.4409,86.6328,0.00014369,1.622e-05,0.0,0 STARLINK-5524,1 56474U 23064AC  24147.63608025  .00001622  00000-0  14369-3 0  9996,2 56474  69.9994 328.6914 0003684 273.4409  86.6328 14.98330905 58061,6950.19,96.107,574.616,569.495,0.0
56474.0,STARLINK-5524,PAYLOAD,2024-05-26 20:04:21,14.98329756,0.0003418,69.9996,328.1852,270.8769,89.1999,0.00014775,1.67e-05,0.0,0 STARLINK-5524,1 56474U 23064AC  24147.83636107  .00001670  00000-0  14775-3 0  9994,2 56474  69.9996 328.1852 0003418 270.8769  89.1999 14.98329756 58451,6950.194,96.107,574.434,569.683,0.0
56474.0,STARLINK-5524,PAYLOAD,2024-05-26 21:40:29,14.98331575,0.0003421,69.9996,328.0166,272.2059,87.8708,0.00013651,1.536e-05,0.0,0 STARLINK-5524,1 56474U 23064AC  24147.90312018  .00001536  00000-0  13651-3 0  9997,2 56474  69.9996 328.0166 0003421 272.2059  87.8708 14.98331575 58107,6950.188,96.107,574.431,569.675,0.0
